#aV2011  1  2  0  0   .00000000      96 DD+AD WGS84 FIT  NGA
## 1617       .00000000   900.00000000 55563  .0000000000000
+   32     1  2  3  4  5  6  7  8  9 10 11 12 13 14 15 16 17
+         18 19 20 21 22 23 24 25 26 27 28 29 30 31 32  0  0
+          0  0  0  0  0  0  0  0  0  0  0  0  0  0  0  0  0
+          0  0  0  0  0  0  0  0  0  0  0  0  0  0  0  0  0
+          0  0  0  0  0  0  0  0  0  0  0  0  0  0  0  0  0
++         0  0  0  0  0  0  0  0  0  0  0  0  0  0  0  0  0
++         0  0  0  0  0  0  0  0  0  0  0  0  0  0  0  0  0
++         0  0  0  0  0  0  0  0  0  0  0  0  0  0  0  0  0
++         0  0  0  0  0  0  0  0  0  0  0  0  0  0  0  0  0
++         0  0  0  0  0  0  0  0  0  0  0  0  0  0  0  0  0
%c cc cc ccc ccc cccc cccc cccc cccc ccccc ccccc ccccc ccccc
%c cc cc ccc ccc cccc cccc cccc cccc ccccc ccccc ccccc ccccc
%f  0.0000000  0.000000000  0.00000000000  0.000000000000000
%f  0.0000000  0.000000000  0.00000000000  0.000000000000000
%i    0    0    0    0      0      0      0      0         0
%i    0    0    0    0      0      0      0      0         0
/*      NGA, ST. LOUIS,MO.                                  
/*   EPHEMERIS COMPUTED FROM  3 DAYS OF DATA                
/* CCCCCCCCCCCCCCCCCCCCCCCCCCCCCCCCCCCCCCCCCCCCCCCCCCCCCCCCC
/* CCCCCCCCCCCCCCCCCCCCCCCCCCCCCCCCCCCCCCCCCCCCCCCCCCCCCCCCC
*  2011  1  2  4 30   .00000000                                                 
P  1   6523.697559 -22854.879050  11604.780262   -196.537965                    
V  1   3297.082935  14763.330156  27087.228004      -.032830                    
P  2   2234.565380  17364.746582  20103.517431    312.269472                    
V  2 -23422.418989 -10039.402288  10805.822758       .022417                    
P  3   2577.319891 -19791.863775 -17772.906041    656.897986                    
V  3  18123.680392 -12689.055008  17476.180910       .051195                    
P  4 -10316.543135  12138.948767  21080.407058    260.450779                    
V  4 -24277.863741 -12481.488845  -4294.800913       .098549                    
P  5   2115.023081  26413.089608   -539.041463    -92.353442                    
V  5  -3014.643824    866.329565  31706.105492      -.059643                    
P  6   8301.110517 -20017.715967 -15067.504535    378.359388                    
V  6  17329.655077  -9483.171399  22103.225759      -.066412                    
P  7 -24103.960337  -4047.850790 -10635.725168      1.188896                    
V  7 -11101.331510  -7805.489614  27917.826188       .005370                    
P  8 -18385.986215   3419.316611 -19062.901825      7.106692                    
V  8 -20251.121153 -12837.594914  16683.710521       .000359                    
P  9  20098.124753  15532.074753  -8323.917095     52.684002                    
V  9  -9664.737260  -2462.709638 -29875.071552       .024053                    
P 10  -8306.020565  21381.621912  12858.451985    -62.062016                    
V 10  -3521.024948 -16693.311053  25454.748377      -.010410                    
P 11 -22873.717211 -11568.204209  -7912.529828   -116.013742                    
V 11  10391.154211  -2193.078075 -27574.168546      -.029422                    
P 12  10972.822610  19301.020430  14727.883326    -39.459568                    
V 12   -762.822514  18611.305864 -23726.894257       .033711                    
P 13 -23029.339499   3370.551907  12703.993186    287.229436                    
V 13  13464.026252  -9285.632479  26542.640590      -.012166                    
P 14  21226.944946 -15433.827998   3737.412980    120.499212                    
V 14   5007.577768   -479.920976 -31892.279226       .030292                    
P 15  11606.891432  10544.241864 -21438.012454   -165.544174                    
V 15 -22234.629270  15791.758924  -4114.208731       .039900                    
P 16   1556.908650 -26130.156814   3507.128062   -139.331077                    
V 16   2718.103209   4359.510513  31838.176960      -.030942                    
P 17 -21718.185823  14992.709344   1672.788019    180.896046                    
V 17  -3289.080027  -1484.118926 -31809.112342       .006967                    
P 18  15419.791893  -3228.277471 -21062.372940    113.641348                    
V 18   1768.945646  27518.567696  -3250.160155       .021150                    
P 19  -7055.783438 -13540.619568 -21723.650663    -97.618812                    
V 19  24250.971997 -13198.441404    674.373378      -.035577                    
P 20 -13893.951482 -15145.139022  16717.868930     48.890865                    
V 20    127.546011 -21670.636061 -19291.425559      -.001247                    
P 21  24126.029372   3121.808883 -10985.100702   -113.698951                    
V 21  11500.309258   9041.157971  26295.146645      -.027505                    
P 22  12024.663435 -16192.186009 -17069.996806    155.824330                    
V 22   3189.059142  22012.788832 -18546.391297      -.006082                    
P 23 -16860.320339  -5428.785758  19890.399492    334.641223                    
V 23  20567.369461 -14499.394195  13148.036440      -.022285                    
P 24 -21130.909662 -15660.860858  -4544.357112    353.038110                    
V 24   6506.378430    297.342816 -30600.736915       .031698                    
P 25  15208.444159   4640.754167  21260.553934    -61.324852                    
V 25   1480.400669  26989.635839  -6947.219533      -.021578                    
P 26  -2370.799580  17001.432581 -20716.716841    -86.323327                    
V 26 -22236.812476  11621.702332  12839.190976      -.089417                    
P 27  16580.719241  16309.317911 -12383.345532    222.834298                    
V 27 -16033.604704  -4996.816164 -26356.841715       .037190                    
P 28 -12694.226408  12521.788470 -19086.543562     12.421217                    
V 28  -2023.492705 -25341.006725 -15162.497074       .019708                    
P 29  22138.772970  -1623.299463  14632.679103    175.019225                    
V 29 -14631.038499  11450.612921  23566.808886       .027434                    
P 30   6826.287295 -21905.740744  12982.479275    309.944619                    
V 30   4213.863777  16808.978307  25338.055477       .032247                    
P 31   7697.692926 -12823.374380  22167.160519     25.129193                    
V 31  24611.958167  12426.686957  -1181.305501       .041561                    
P 32  -7850.369905 -22790.170896  11892.513124   -166.214871                    
V 32   2441.120933 -14445.499305 -26366.641834      -.081361                    
EOF
